{
  "type": "FeatureCollection",
  "features": [
    {
      "type": "Feature",
      "properties": {
        "norad_id": 48859,
        "name": "GPS BIII-5  (PRN 11)",
        "group": "gnss",
        "lat": 26.05075736468685,
        "lon": -0.4162504595083838,
        "alt_km": 20240.972155529955,
        "timestamp": "2025-12-17T13:48:37.798484+00:00",
        "meta_object_name": "GPS BIII-5  (PRN 11)",
        "meta_object_id": "2021-054A",
        "meta_epoch": "2025-12-08T04:14:32.423424",
        "meta_mean_motion": 2.00553627,
        "meta_eccentricity": 0.0024678,
        "meta_inclination": 55.2581,
        "meta_ra_of_asc_node": 340.1367,
        "meta_arg_of_pericenter": 233.3994,
        "meta_mean_anomaly": 212.8593,
        "meta_ephemeris_type": 0,
        "meta_classification_type": "U",
        "meta_norad_cat_id": 48859,
        "meta_element_set_no": 999,
        "meta_rev_at_epoch": 3292,
        "meta_bstar": 0,
        "meta_mean_motion_dot": -8.6e-07,
        "meta_mean_motion_ddot": 0,
        "tle_line1": "1 48859U 21054A   25342.17676416 -.00000086  00000+0  00000+0 0  9993",
        "tle_line2": "2 48859  55.2581 340.1367 0024678 233.3994 212.8593  2.00553627 32922"
      },
      "geometry": {
        "type": "Point",
        "coordinates": [
          -0.4162504595083838,
          26.05075736468685
        ]
      }
    },
    {
      "type": "Feature",
      "properties": {
        "norad_id": 49336,
        "name": "QZS-1R (QZSS/PRN 196)",
        "group": "gnss",
        "lat": -3.4061778130558897,
        "lon": 77.75723439933486,
        "alt_km": 35171.080583566894,
        "timestamp": "2025-12-17T13:48:37.798495+00:00",
        "meta_object_name": "QZS-1R (QZSS/PRN 196)",
        "meta_object_id": "2021-096A",
        "meta_epoch": "2025-12-16T14:02:25.911168",
        "meta_mean_motion": 1.00256555,
        "meta_eccentricity": 0.075615,
        "meta_inclination": 37.0853,
        "meta_ra_of_asc_node": 82.3023,
        "meta_arg_of_pericenter": 271.3992,
        "meta_mean_anomaly": 76.9264,
        "meta_ephemeris_type": 0,
        "meta_classification_type": "U",
        "meta_norad_cat_id": 49336,
        "meta_element_set_no": 999,
        "meta_rev_at_epoch": 1517,
        "meta_bstar": 0,
        "meta_mean_motion_dot": -2.79e-06,
        "meta_mean_motion_ddot": 0,
        "tle_line1": "1 49336U 21096A   25350.58502212 -.00000279  00000+0  00000+0 0  9990",
        "tle_line2": "2 49336  37.0853  82.3023 0756150 271.3992  76.9264  1.00256555 15175"
      },
      "geometry": {
        "type": "Point",
        "coordinates": [
          77.75723439933486,
          -3.4061778130558897
        ]
      }
    },
    {
      "type": "Feature",
      "properties": {
        "norad_id": 49809,
        "name": "GSAT0223 (GALILEO 27)",
        "group": "gnss",
        "lat": -56.07592493939298,
        "lon": -120.0248508428843,
        "alt_km": 23214.900106500267,
        "timestamp": "2025-12-17T13:48:37.798513+00:00",
        "meta_object_name": "GSAT0223 (GALILEO 27)",
        "meta_object_id": "2021-116A",
        "meta_epoch": "2025-12-16T20:22:21.643104",
        "meta_mean_motion": 1.70476101,
        "meta_eccentricity": 0.00044272,
        "meta_inclination": 57.2185,
        "meta_ra_of_asc_node": 346.6017,
        "meta_arg_of_pericenter": 254.1798,
        "meta_mean_anomaly": 280.7094,
        "meta_ephemeris_type": 0,
        "meta_classification_type": "U",
        "meta_norad_cat_id": 49809,
        "meta_element_set_no": 999,
        "meta_rev_at_epoch": 2507,
        "meta_bstar": 0,
        "meta_mean_motion_dot": -7.9e-07,
        "meta_mean_motion_ddot": 0,
        "tle_line1": "1 49809U 21116A   25350.84886161 -.00000079  00000+0  00000+0 0  9993",
        "tle_line2": "2 49809  57.2185 346.6017 0004427 254.1798 280.7094  1.70476101 25071"
      },
      "geometry": {
        "type": "Point",
        "coordinates": [
          -120.0248508428843,
          -56.07592493939298
        ]
      }
    },
    {
      "type": "Feature",
      "properties": {
        "norad_id": 49810,
        "name": "GSAT0224 (GALILEO 28)",
        "group": "gnss",
        "lat": 11.25228387346069,
        "lon": -6.055816412825323,
        "alt_km": 23225.629696184555,
        "timestamp": "2025-12-17T13:48:37.798523+00:00",
        "meta_object_name": "GSAT0224 (GALILEO 28)",
        "meta_object_id": "2021-116B",
        "meta_epoch": "2025-12-16T23:13:52.406688",
        "meta_mean_motion": 1.70476122,
        "meta_eccentricity": 0.00037953,
        "meta_inclination": 57.2194,
        "meta_ra_of_asc_node": 346.5971,
        "meta_arg_of_pericenter": 257.7514,
        "meta_mean_anomaly": 102.8295,
        "meta_ephemeris_type": 0,
        "meta_classification_type": "U",
        "meta_norad_cat_id": 49810,
        "meta_element_set_no": 999,
        "meta_rev_at_epoch": 2510,
        "meta_bstar": 0,
        "meta_mean_motion_dot": -7.9e-07,
        "meta_mean_motion_ddot": 0,
        "tle_line1": "1 49810U 21116B   25350.96796767 -.00000079  00000+0  00000+0 0  9990",
        "tle_line2": "2 49810  57.2194 346.5971 0003795 257.7514 102.8295  1.70476122 25107"
      },
      "geometry": {
        "type": "Point",
        "coordinates": [
          -6.055816412825323,
          11.25228387346069
        ]
      }
    },
    {
      "type": "Feature",
      "properties": {
        "norad_id": 52984,
        "name": "COSMOS 2557 (706K)",
        "group": "gnss",
        "lat": 46.85445890191618,
        "lon": -8.38697114322706,
        "alt_km": 19149.998075966865,
        "timestamp": "2025-12-17T13:48:37.798533+00:00",
        "meta_object_name": "COSMOS 2557 (706K)",
        "meta_object_id": "2022-075A",
        "meta_epoch": "2025-12-16T02:19:59.542752",
        "meta_mean_motion": 2.13101842,
        "meta_eccentricity": 0.001368,
        "meta_inclination": 64.4074,
        "meta_ra_of_asc_node": 320.9331,
        "meta_arg_of_pericenter": 277.1677,
        "meta_mean_anomaly": 82.672,
        "meta_ephemeris_type": 0,
        "meta_classification_type": "U",
        "meta_norad_cat_id": 52984,
        "meta_element_set_no": 999,
        "meta_rev_at_epoch": 2681,
        "meta_bstar": 0,
        "meta_mean_motion_dot": -7e-07,
        "meta_mean_motion_ddot": 0,
        "tle_line1": "1 52984U 22075A   25350.09721693 -.00000070  00000+0  00000+0 0  9992",
        "tle_line2": "2 52984  64.4074 320.9331 0013680 277.1677  82.6720  2.13101842 26815"
      },
      "geometry": {
        "type": "Point",
        "coordinates": [
          -8.38697114322706,
          46.85445890191618
        ]
      }
    },
    {
      "type": "Feature",
      "properties": {
        "norad_id": 54031,
        "name": "COSMOS 2559 (707K)",
        "group": "gnss",
        "lat": -11.509155931358903,
        "lon": 146.56235262988517,
        "alt_km": 19101.983075994096,
        "timestamp": "2025-12-17T13:48:37.798546+00:00",
        "meta_object_name": "COSMOS 2559 (707K)",
        "meta_object_id": "2022-130A",
        "meta_epoch": "2025-12-14T00:56:40.379136",
        "meta_mean_motion": 2.13101379,
        "meta_eccentricity": 0.00117642,
        "meta_inclination": 64.3815,
        "meta_ra_of_asc_node": 321.0953,
        "meta_arg_of_pericenter": 192.3475,
        "meta_mean_anomaly": 167.6228,
        "meta_ephemeris_type": 0,
        "meta_classification_type": "U",
        "meta_norad_cat_id": 54031,
        "meta_element_set_no": 999,
        "meta_rev_at_epoch": 2474,
        "meta_bstar": 0,
        "meta_mean_motion_dot": -6.6e-07,
        "meta_mean_motion_ddot": 0,
        "tle_line1": "1 54031U 22130A   25348.03935624 -.00000066  00000+0  00000+0 0  9996",
        "tle_line2": "2 54031  64.3815 321.0953 0011764 192.3475 167.6228  2.13101379 24741"
      },
      "geometry": {
        "type": "Point",
        "coordinates": [
          146.56235262988517,
          -11.509155931358903
        ]
      }
    },
    {
      "type": "Feature",
      "properties": {
        "norad_id": 54377,
        "name": "COSMOS 2564 (761)",
        "group": "gnss",
        "lat": -41.943903187057884,
        "lon": 173.62811871528012,
        "alt_km": 19141.80212401485,
        "timestamp": "2025-12-17T13:48:37.798557+00:00",
        "meta_object_name": "COSMOS 2564 (761)",
        "meta_object_id": "2022-161A",
        "meta_epoch": "2025-12-16T16:46:44.679072",
        "meta_mean_motion": 2.13102099,
        "meta_eccentricity": 0.00085776,
        "meta_inclination": 64.7384,
        "meta_ra_of_asc_node": 198.7673,
        "meta_arg_of_pericenter": 204.2808,
        "meta_mean_anomaly": 155.7608,
        "meta_ephemeris_type": 0,
        "meta_classification_type": "U",
        "meta_norad_cat_id": 54377,
        "meta_element_set_no": 999,
        "meta_rev_at_epoch": 2374,
        "meta_bstar": 0,
        "meta_mean_motion_dot": 1.11e-06,
        "meta_mean_motion_ddot": 0,
        "tle_line1": "1 54377U 22161A   25350.69912823  .00000111  00000+0  00000+0 0  9994",
        "tle_line2": "2 54377  64.7384 198.7673 0008577 204.2808 155.7608  2.13102099 23747"
      },
      "geometry": {
        "type": "Point",
        "coordinates": [
          173.62811871528012,
          -41.943903187057884
        ]
      }
    }
  ]
}